OBJECT B                
1 51825U 22019B   25128.90552654  .00023894  00000+0  61441-3 0  9993
2 51825  97.3868 205.2486 0011742 157.9502 202.2251 15.39197760177024
